{
"type": "FeatureCollection",
"name": "finland",
"crs": { "type": "name", "properties": { "name": "urn:ogc:def:crs:OGC:1.3:CRS84" } },
"features": [
{ "type": "Feature", "properties": { "featurecla": "Admin-0 country", "scalerank": 1, "LABELRANK": 3, "SOVEREIGNT": "Finland", "SOV_A3": "FI1", "ADM0_DIF": 1, "LEVEL": 2, "TYPE": "Country", "TLC": "1", "ADMIN": "Finland", "ADM0_A3": "FIN", "GEOU_DIF": 0, "GEOUNIT": "Finland", "GU_A3": "FIN", "SU_DIF": 0, "SUBUNIT": "Finland", "SU_A3": "FIN", "BRK_DIFF": 0, "NAME": "Finland", "NAME_LONG": "Finland", "BRK_A3": "FIN", "BRK_NAME": "Finland", "BRK_GROUP": null, "ABBREV": "Fin.", "POSTAL": "FIN", "FORMAL_EN": "Republic of Finland", "FORMAL_FR": null, "NAME_CIAWF": "Finland", "NOTE_ADM0": null, "NOTE_BRK": null, "NAME_SORT": "Finland", "NAME_ALT": null, "MAPCOLOR7": 4, "MAPCOLOR8": 1, "MAPCOLOR9": 4, "MAPCOLOR13": 6, "POP_EST": 5520314.0, "POP_RANK": 13, "POP_YEAR": 2019, "GDP_MD": 269296, "GDP_YEAR": 2019, "ECONOMY": "2. Developed region: nonG7", "INCOME_GRP": "1. High income: OECD", "FIPS_10": "FI", "ISO_A2": "FI", "ISO_A2_EH": "FI", "ISO_A3": "FIN", "ISO_A3_EH": "FIN", "ISO_N3": "246", "ISO_N3_EH": "246", "UN_A3": "246", "WB_A2": "FI", "WB_A3": "FIN", "WOE_ID": 23424812, "WOE_ID_EH": 23424812, "WOE_NOTE": "Exact WOE match as country", "ADM0_ISO": "FIN", "ADM0_DIFF": null, "ADM0_TLC": "FIN", "ADM0_A3_US": "FIN", "ADM0_A3_FR": "FIN", "ADM0_A3_RU": "FIN", "ADM0_A3_ES": "FIN", "ADM0_A3_CN": "FIN", "ADM0_A3_TW": "FIN", "ADM0_A3_IN": "FIN", "ADM0_A3_NP": "FIN", "ADM0_A3_PK": "FIN", "ADM0_A3_DE": "FIN", "ADM0_A3_GB": "FIN", "ADM0_A3_BR": "FIN", "ADM0_A3_IL": "FIN", "ADM0_A3_PS": "FIN", "ADM0_A3_SA": "FIN", "ADM0_A3_EG": "FIN", "ADM0_A3_MA": "FIN", "ADM0_A3_PT": "FIN", "ADM0_A3_AR": "FIN", "ADM0_A3_JP": "FIN", "ADM0_A3_KO": "FIN", "ADM0_A3_VN": "FIN", "ADM0_A3_TR": "FIN", "ADM0_A3_ID": "FIN", "ADM0_A3_PL": "FIN", "ADM0_A3_GR": "FIN", "ADM0_A3_IT": "FIN", "ADM0_A3_NL": "FIN", "ADM0_A3_SE": "FIN", "ADM0_A3_BD": "FIN", "ADM0_A3_UA": "FIN", "ADM0_A3_UN": -99, "ADM0_A3_WB": -99, "CONTINENT": "Europe", "REGION_UN": "Europe", "SUBREGION": "Northern Europe", "REGION_WB": "Europe & Central Asia", "NAME_LEN": 7, "LONG_LEN": 7, "ABBREV_LEN": 4, "TINY": -99, "HOMEPART": 1, "MIN_ZOOM": 0.0, "MIN_LABEL": 3.0, "MAX_LABEL": 8.0, "LABEL_X": 27.276449, "LABEL_Y": 63.252361, "NE_ID": 1159320623, "WIKIDATAID": "Q33", "NAME_AR": "فنلندا", "NAME_BN": "ফিনল্যান্ড", "NAME_DE": "Finnland", "NAME_EN": "Finland", "NAME_ES": "Finlandia", "NAME_FA": "فنلاند", "NAME_FR": "Finlande", "NAME_EL": "Φινλανδία", "NAME_HE": "פינלנד", "NAME_HI": "फ़िनलैण्ड", "NAME_HU": "Finnország", "NAME_ID": "Finlandia", "NAME_IT": "Finlandia", "NAME_JA": "フィンランド", "NAME_KO": "핀란드", "NAME_NL": "Finland", "NAME_PL": "Finlandia", "NAME_PT": "Finlândia", "NAME_RU": "Финляндия", "NAME_SV": "Finland", "NAME_TR": "Finlandiya", "NAME_UK": "Фінляндія", "NAME_UR": "فن لینڈ", "NAME_VI": "Phần Lan", "NAME_ZH": "芬兰", "NAME_ZHT": "芬蘭", "FCLASS_ISO": "Admin-0 country", "TLC_DIFF": null, "FCLASS_TLC": "Admin-0 country", "FCLASS_US": null, "FCLASS_FR": null, "FCLASS_RU": null, "FCLASS_ES": null, "FCLASS_CN": null, "FCLASS_TW": null, "FCLASS_IN": null, "FCLASS_NP": null, "FCLASS_PK": null, "FCLASS_DE": null, "FCLASS_GB": null, "FCLASS_BR": null, "FCLASS_IL": null, "FCLASS_PS": null, "FCLASS_SA": null, "FCLASS_EG": null, "FCLASS_MA": null, "FCLASS_PT": null, "FCLASS_AR": null, "FCLASS_JP": null, "FCLASS_KO": null, "FCLASS_VN": null, "FCLASS_TR": null, "FCLASS_ID": null, "FCLASS_PL": null, "FCLASS_GR": null, "FCLASS_IT": null, "FCLASS_NL": null, "FCLASS_SE": null, "FCLASS_BD": null, "FCLASS_UA": null }, "geometry": { "type": "MultiPolygon", "coordinates": [ [ [ [ 24.155468750000011, 65.805273437500006 ], [ 24.049023437500011, 65.98984375 ], [ 23.99462890625, 66.060351562500003 ], [ 23.907324218750006, 66.148242187500003 ], [ 23.75146484375, 66.191162109375 ], [ 23.720996093750017, 66.215429687500006 ], [ 23.700292968750006, 66.252636718749997 ], [ 23.693554687500011, 66.304296875 ], [ 23.673828125, 66.380712890625006 ], [ 23.682031250000023, 66.443408203125003 ], [ 23.701171875, 66.480761718750003 ], [ 23.768359375000017, 66.505859375 ], [ 23.865527343750017, 66.576611328124997 ], [ 23.885839843750006, 66.628027343750006 ], [ 23.894140625, 66.706884765625006 ], [ 23.938867187500023, 66.775732421875006 ], [ 23.988574218750017, 66.810546875 ], [ 23.97607421875, 66.838232421875006 ], [ 23.941796875000023, 66.877832031249994 ], [ 23.869335937500011, 66.934033203124997 ], [ 23.758984375000011, 67.002587890624994 ], [ 23.67734375, 67.068115234375 ], [ 23.641503906250023, 67.12939453125 ], [ 23.623046875, 67.184130859375003 ], [ 23.626074218750006, 67.233935546875003 ], [ 23.656640625000023, 67.267822265625 ], [ 23.760937500000011, 67.310498046874997 ], [ 23.77490234375, 67.32861328125 ], [ 23.733593750000011, 67.422900390625003 ], [ 23.660839843750011, 67.440039062500006 ], [ 23.537109375, 67.449169921874997 ], [ 23.468066406250017, 67.449951171875 ], [ 23.454882812500017, 67.460253906250003 ], [ 23.451464843750017, 67.479199218749997 ], [ 23.465429687500006, 67.517871093750003 ], [ 23.504492187500006, 67.562158203124994 ], [ 23.537011718750023, 67.590380859375003 ], [ 23.541308593750017, 67.614306640625003 ], [ 23.500195312500011, 67.696191406249994 ], [ 23.48779296875, 67.796582031249997 ], [ 23.501855468750023, 67.875195312499997 ], [ 23.632910156250006, 67.933203125 ], [ 23.638867187500011, 67.954394531250003 ], [ 23.47421875, 68.017333984375 ], [ 23.35546875, 68.088671875 ], [ 23.318554687500011, 68.130322265624997 ], [ 23.182519531250023, 68.136621093749994 ], [ 23.097851562500011, 68.257568359375 ], [ 22.975390625000017, 68.316455078125003 ], [ 22.854101562500006, 68.367333984374994 ], [ 22.782421875000011, 68.391015625 ], [ 22.362109375000017, 68.4640625 ], [ 22.195117187500017, 68.477978515624997 ], [ 21.997460937500023, 68.520605468750006 ], [ 21.850195312500006, 68.574121093749994 ], [ 21.724023437500023, 68.608544921874994 ], [ 21.616015625000017, 68.650976562500006 ], [ 21.465429687500006, 68.690673828125 ], [ 21.42236328125, 68.724609375 ], [ 21.259765625, 68.787451171875006 ], [ 21.183398437500017, 68.828808593749997 ], [ 20.918554687500006, 68.906933593749997 ], [ 20.908984375000017, 68.937744140625 ], [ 20.907031250000017, 68.967480468749997 ], [ 20.895117187500006, 68.979833984375006 ], [ 20.622167968750006, 69.036865234375 ], [ 20.675878906250006, 69.069482421874994 ], [ 20.889257812500006, 69.071435546874994 ], [ 21.065722656250017, 69.041748046875 ], [ 21.1044921875, 69.054443359375 ], [ 21.127832031250023, 69.080810546875 ], [ 21.052636718750023, 69.186572265625003 ], [ 21.066113281250011, 69.214111328125 ], [ 21.14375, 69.247265625 ], [ 21.266796875000011, 69.273681640625 ], [ 21.461230468750017, 69.277490234374994 ], [ 21.59375, 69.273583984374994 ], [ 21.621777343750011, 69.270703125 ], [ 21.819726562500023, 69.154492187499997 ], [ 21.989453125000011, 69.041113281250006 ], [ 22.0796875, 68.992773437500006 ], [ 22.300390625, 68.855859375 ], [ 22.382910156250006, 68.776611328125 ], [ 22.410937500000017, 68.719873046874994 ], [ 22.500683593750011, 68.72021484375 ], [ 22.81103515625, 68.6953125 ], [ 23.071679687500023, 68.674365234375003 ], [ 23.144335937500017, 68.642578125 ], [ 23.324023437500017, 68.648974609375003 ], [ 23.4625, 68.677636718749994 ], [ 23.70703125, 68.7138671875 ], [ 23.772558593750006, 68.758398437500006 ], [ 23.85400390625, 68.805908203125 ], [ 23.997363281250017, 68.7984375 ], [ 24.154101562500017, 68.760888671874994 ], [ 24.33203125, 68.711523437500006 ], [ 24.490527343750017, 68.688671875 ], [ 24.703222656250006, 68.65283203125 ], [ 24.802441406250011, 68.606494140625003 ], [ 24.94140625, 68.59326171875 ], [ 25.0869140625, 68.639599609374997 ], [ 25.1728515625, 68.765283203124994 ], [ 25.249121093750006, 68.821337890625003 ], [ 25.357128906250011, 68.862451171874994 ], [ 25.480859375000023, 68.880615234375 ], [ 25.575292968750006, 68.887158203124997 ], [ 25.646679687500011, 68.919140625 ], [ 25.748339843750017, 68.990136718749994 ], [ 25.768164062500006, 69.076123046874997 ], [ 25.748632812500006, 69.2314453125 ], [ 25.7671875, 69.282666015624997 ], [ 25.850195312500006, 69.366503906250003 ], [ 25.961523437500006, 69.588623046875 ], [ 26.011523437500017, 69.652636718750003 ], [ 26.072460937500011, 69.691552734374994 ], [ 26.156152343750023, 69.714697265625006 ], [ 26.308203125, 69.781933593749997 ], [ 26.525390625, 69.9150390625 ], [ 26.584277343750017, 69.926318359375003 ], [ 26.740234375, 69.933056640624997 ], [ 26.934277343750011, 69.928125 ], [ 27.108691406250017, 69.9046875 ], [ 27.127539062500006, 69.906494140625 ], [ 27.205664062500006, 69.918701171875 ], [ 27.348046875000023, 69.960058593750006 ], [ 27.591699218750023, 70.042236328125 ], [ 27.747851562500017, 70.06484375 ], [ 27.889941406250017, 70.061669921874994 ], [ 28.047265625000023, 69.9716796875 ], [ 28.269140625, 69.871435546875006 ], [ 28.41171875, 69.82275390625 ], [ 28.800390625, 69.731494140625003 ], [ 29.1416015625, 69.671435546875003 ], [ 29.333398437500023, 69.472998046875006 ], [ 29.238867187500006, 69.393945312499994 ], [ 29.191796875000023, 69.36669921875 ], [ 29.02490234375, 69.287988281249994 ], [ 28.846289062500006, 69.176904296874994 ], [ 28.832617187500006, 69.118994140625006 ], [ 28.891894531250017, 69.060595703125003 ], [ 28.9658203125, 69.02197265625 ], [ 28.89892578125, 69.009667968749994 ], [ 28.692187500000017, 68.961035156250006 ], [ 28.566015625, 68.92822265625 ], [ 28.4140625, 68.904150390625006 ], [ 28.453515625000023, 68.872265625 ], [ 28.705957031250023, 68.865527343750003 ], [ 28.744824218750011, 68.8564453125 ], [ 28.772851562500023, 68.840039062499997 ], [ 28.777636718750017, 68.813818359375006 ], [ 28.752050781250006, 68.771435546874997 ], [ 28.479296875000017, 68.537646484375003 ], [ 28.470703125, 68.488378906250006 ], [ 28.56015625, 68.351367187500003 ], [ 28.68515625, 68.189794921875006 ], [ 29.06298828125, 68.11796875 ], [ 29.343847656250006, 68.061865234375006 ], [ 29.524218750000017, 67.929101562499994 ], [ 29.821582031250017, 67.754003906250006 ], [ 29.979199218750011, 67.688574218750006 ], [ 29.988085937500017, 67.668261718750003 ], [ 29.941210937500017, 67.547460937500006 ], [ 29.750585937500006, 67.426416015624994 ], [ 29.572265625, 67.324365234374994 ], [ 29.3876953125, 67.201416015625 ], [ 29.243359375000011, 67.096582031249994 ], [ 29.087011718750006, 66.970947265625 ], [ 29.069042968750011, 66.930224609375003 ], [ 29.066210937500017, 66.891748046874994 ], [ 29.093066406250017, 66.84921875 ], [ 29.293261718750017, 66.695507812499997 ], [ 29.371191406250006, 66.617041015625006 ], [ 29.46435546875, 66.532177734374997 ], [ 29.544335937500023, 66.439697265625 ], [ 29.590722656250023, 66.356835937499994 ], [ 29.6708984375, 66.276123046875 ], [ 29.720703125, 66.23486328125 ], [ 29.803515625000017, 66.177050781250003 ], [ 29.903417968750006, 66.091064453125 ], [ 29.936621093750006, 66.02294921875 ], [ 30.0875, 65.786523437499994 ], [ 30.102734375000011, 65.726269531249997 ], [ 30.0953125, 65.681689453125003 ], [ 30.029003906250011, 65.670703125 ], [ 29.882617187500017, 65.663623046875003 ], [ 29.723925781250017, 65.634375 ], [ 29.715917968750006, 65.624560546875003 ], [ 29.819433593750006, 65.56875 ], [ 29.72802734375, 65.4734375 ], [ 29.71484375, 65.336962890625003 ], [ 29.6171875, 65.265332031249997 ], [ 29.608007812500006, 65.248681640624994 ], [ 29.612402343750006, 65.234765625 ], [ 29.629687500000017, 65.223876953125 ], [ 29.810546875, 65.204736328124994 ], [ 29.826171875, 65.185302734375 ], [ 29.826953125000017, 65.145068359375003 ], [ 29.810839843750017, 65.10791015625 ], [ 29.720019531250017, 65.080322265625 ], [ 29.622460937500023, 65.039501953124997 ], [ 29.600878906250017, 65.001953125 ], [ 29.604199218750011, 64.968408203124994 ], [ 29.6375, 64.911767578124994 ], [ 29.70166015625, 64.845751953125003 ], [ 29.783203125, 64.804296875 ], [ 30.072851562500006, 64.765039062499994 ], [ 30.110253906250023, 64.732568359374994 ], [ 30.126171875000011, 64.688085937500006 ], [ 30.1201171875, 64.644628906250006 ], [ 29.985546875000011, 64.557714843750006 ], [ 29.986621093750017, 64.524267578125006 ], [ 30.041894531250023, 64.443359375 ], [ 30.108105468750011, 64.366113281249994 ], [ 30.390625, 64.282421875 ], [ 30.487890625, 64.236523437499997 ], [ 30.513769531250006, 64.2 ], [ 30.527929687500006, 64.14111328125 ], [ 30.526074218750011, 64.077294921874994 ], [ 30.50390625, 64.020605468750006 ], [ 30.415332031250017, 63.947509765625 ], [ 30.210253906250017, 63.803320312499999 ], [ 30.004101562500011, 63.747314453125 ], [ 29.991503906250017, 63.73515625 ], [ 30.055371093750011, 63.689013671875003 ], [ 30.418554687500006, 63.504052734374994 ], [ 30.6552734375, 63.41748046875 ], [ 30.974804687500011, 63.300634765624999 ], [ 31.180859375000011, 63.208300781250003 ], [ 31.247460937500023, 63.141894531250003 ], [ 31.336718750000017, 63.068066406249997 ], [ 31.43701171875, 63.007714843749994 ], [ 31.50927734375, 62.955322265625 ], [ 31.536523437500023, 62.921630859375 ], [ 31.533984375000017, 62.885400390624994 ], [ 31.437304687500017, 62.776123046875 ], [ 31.382421875, 62.691650390625 ], [ 31.28564453125, 62.567822265624997 ], [ 31.186718750000011, 62.481396484374997 ], [ 30.935742187500011, 62.323779296875003 ], [ 30.565625, 62.127587890624994 ], [ 30.479687500000011, 62.068212890624999 ], [ 30.306445312500017, 61.96484375 ], [ 30.009960937500011, 61.757373046875003 ], [ 29.933203125, 61.711572265624994 ], [ 29.690136718750011, 61.54609375 ], [ 29.579394531250017, 61.493457031250003 ], [ 29.492382812500011, 61.444238281249994 ], [ 29.251660156250011, 61.287792968749997 ], [ 28.992968750000017, 61.169042968749999 ], [ 28.739062500000017, 61.058740234374994 ], [ 28.662890625000017, 61.002832031249994 ], [ 28.568164062500017, 60.960205078125 ], [ 28.455078125, 60.919628906249997 ], [ 28.407421875000011, 60.896923828124997 ], [ 28.151953125, 60.745849609375 ], [ 27.797656250000017, 60.5361328125 ], [ 27.761621093750023, 60.532861328124994 ], [ 27.669335937500023, 60.498974609374997 ], [ 27.525097656250011, 60.490771484375003 ], [ 27.46240234375, 60.46484375 ], [ 27.241894531250011, 60.538671875 ], [ 27.205273437500011, 60.54345703125 ], [ 27.075585937500023, 60.525146484375 ], [ 26.951171875, 60.471484375 ], [ 26.721484375000017, 60.455078125 ], [ 26.607421875, 60.437695312499997 ], [ 26.53466796875, 60.412890625 ], [ 26.519726562500011, 60.471582031249994 ], [ 26.551171875000023, 60.545996093749999 ], [ 26.601757812500011, 60.595605468749994 ], [ 26.6064453125, 60.6279296875 ], [ 26.5693359375, 60.624560546875003 ], [ 26.495800781250011, 60.551806640625003 ], [ 26.456445312500023, 60.466796875 ], [ 26.377734375000017, 60.424072265625 ], [ 26.2046875, 60.406591796874999 ], [ 26.036035156250023, 60.474902343750003 ], [ 25.955957031250023, 60.47421875 ], [ 26.00625, 60.42529296875 ], [ 26.040234375000011, 60.37158203125 ], [ 26.035839843750011, 60.341503906249997 ], [ 25.945898437500006, 60.346777343749999 ], [ 25.845800781250006, 60.314599609374994 ], [ 25.758007812500011, 60.267529296874997 ], [ 25.715429687500006, 60.267431640624999 ], [ 25.656445312500011, 60.333203125 ], [ 25.548242187500023, 60.302490234375 ], [ 25.455761718750011, 60.26123046875 ], [ 25.267871093750017, 60.248339843750003 ], [ 25.155859375, 60.194091796875 ], [ 24.957617187500006, 60.157470703125 ], [ 24.848730468750006, 60.158349609374994 ], [ 24.600488281250023, 60.1142578125 ], [ 24.517968750000023, 60.046289062499994 ], [ 24.445605468750017, 60.021289062500003 ], [ 24.342578125000017, 60.042333984374999 ], [ 24.025195312500017, 60.009179687499994 ], [ 23.721777343750006, 59.965673828124999 ], [ 23.592675781250023, 59.968164062499994 ], [ 23.463574218750011, 59.986230468749994 ], [ 23.326757812500006, 59.92578125 ], [ 23.181445312500017, 59.844921875 ], [ 23.021289062500017, 59.816015625 ], [ 22.9638671875, 59.826367187499997 ], [ 23.009765625, 59.868798828124994 ], [ 23.11572265625, 59.912695312499999 ], [ 23.1884765625, 59.972216796875003 ], [ 23.198437500000011, 60.021826171874999 ], [ 23.1484375, 60.041308593750003 ], [ 23.080175781250006, 60.047265625 ], [ 22.994140625, 60.098535156249994 ], [ 22.91171875, 60.209716796875 ], [ 22.867089843750023, 60.2158203125 ], [ 22.844433593750011, 60.186621093749999 ], [ 22.819140625000017, 60.101367187500003 ], [ 22.79345703125, 60.076806640624994 ], [ 22.749804687500017, 60.057275390624994 ], [ 22.697363281250006, 60.03759765625 ], [ 22.646191406250011, 60.028027343749997 ], [ 22.462695312500017, 60.029199218749994 ], [ 22.438574218750006, 60.072265625 ], [ 22.438574218750006, 60.090283203124997 ], [ 22.471093750000023, 60.14697265625 ], [ 22.442675781250017, 60.156884765624994 ], [ 22.4697265625, 60.201318359374994 ], [ 22.512988281250017, 60.198925781249997 ], [ 22.564257812500017, 60.205517578124997 ], [ 22.589941406250006, 60.228369140624999 ], [ 22.587988281250006, 60.255664062500003 ], [ 22.516699218750006, 60.262744140625003 ], [ 22.512304687500006, 60.281347656249999 ], [ 22.575878906250011, 60.359082031249997 ], [ 22.5849609375, 60.380566406249997 ], [ 22.560351562500017, 60.385009765625 ], [ 22.5205078125, 60.3765625 ], [ 22.257910156250006, 60.400927734375003 ], [ 21.933984375000023, 60.500292968750003 ], [ 21.854296875000017, 60.505419921875003 ], [ 21.805273437500006, 60.594140625 ], [ 21.727148437500006, 60.582910156249994 ], [ 21.61328125, 60.530957031249997 ], [ 21.52783203125, 60.570410156249999 ], [ 21.43603515625, 60.596386718749997 ], [ 21.41064453125, 60.636962890625 ], [ 21.411914062500017, 60.696826171875003 ], [ 21.404003906250011, 60.767431640624999 ], [ 21.37890625, 60.850048828124997 ], [ 21.360546875000011, 60.967480468749997 ], [ 21.377734375000017, 61.059228515624994 ], [ 21.450976562500017, 61.127148437499997 ], [ 21.479101562500006, 61.170507812499999 ], [ 21.513476562500017, 61.281201171874997 ], [ 21.521191406250011, 61.410839843749997 ], [ 21.501757812500017, 61.454980468749994 ], [ 21.506640625000017, 61.484326171874997 ], [ 21.565039062500006, 61.484326171874997 ], [ 21.55234375, 61.509521484375 ], [ 21.526660156250017, 61.523291015624999 ], [ 21.498242187500011, 61.551953125 ], [ 21.5224609375, 61.567138671875 ], [ 21.592382812500006, 61.568212890624999 ], [ 21.598046875000023, 61.577880859375 ], [ 21.60595703125, 61.591552734375 ], [ 21.551855468750006, 61.666845703124999 ], [ 21.545605468750011, 61.702734375 ], [ 21.470507812500017, 61.811669921874994 ], [ 21.384863281250006, 61.914941406249994 ], [ 21.255957031250006, 61.989648437499994 ], [ 21.301660156250023, 62.112646484374999 ], [ 21.353710937500011, 62.223828125 ], [ 21.343359375, 62.277392578125003 ], [ 21.323437500000011, 62.342578125 ], [ 21.165625, 62.4140625 ], [ 21.1421875, 62.514794921874994 ], [ 21.103613281250006, 62.622949218749994 ], [ 21.1181640625, 62.689257812500003 ], [ 21.143847656250017, 62.739990234375 ], [ 21.195703125000023, 62.79052734375 ], [ 21.45751953125, 62.95 ], [ 21.473535156250023, 63.033251953125003 ], [ 21.650976562500006, 63.039306640625 ], [ 21.568652343750017, 63.113720703124997 ], [ 21.549218750000023, 63.155517578125 ], [ 21.545117187500011, 63.204296875 ], [ 21.800390625, 63.237695312499994 ], [ 21.895703125000011, 63.210253906250003 ], [ 22.120312500000011, 63.244140625 ], [ 22.319726562500023, 63.310449218749994 ], [ 22.316210937500017, 63.345654296874997 ], [ 22.285546875000023, 63.377197265625 ], [ 22.243261718750006, 63.437939453124997 ], [ 22.273242187500017, 63.454785156249997 ], [ 22.345996093750017, 63.4423828125 ], [ 22.312597656250006, 63.472558593749994 ], [ 22.318652343750017, 63.50439453125 ], [ 22.398046875, 63.491162109374997 ], [ 22.527636718750017, 63.579980468749994 ], [ 22.532324218750006, 63.647851562499994 ], [ 22.75625, 63.683349609375 ], [ 23.014453125000017, 63.821826171875003 ], [ 23.133593750000017, 63.864941406249997 ], [ 23.248730468750011, 63.896142578124994 ], [ 23.493945312500017, 64.034472656250003 ], [ 23.598925781250017, 64.040917968749994 ], [ 23.652929687500006, 64.134179687499994 ], [ 23.861425781250006, 64.258251953124997 ], [ 23.9248046875, 64.274121093749997 ], [ 24.022265625000017, 64.385986328125 ], [ 24.2783203125, 64.515283203124994 ], [ 24.440625, 64.680126953124997 ], [ 24.530175781250023, 64.738671875 ], [ 24.557910156250017, 64.801025390625 ], [ 24.657617187500023, 64.806298828124994 ], [ 24.74755859375, 64.852099609375003 ], [ 24.942187500000017, 64.884033203125 ], [ 25.13427734375, 64.875195312499997 ], [ 25.214257812500023, 64.853466796874997 ], [ 25.288183593750006, 64.8603515625 ], [ 25.28076171875, 64.91640625 ], [ 25.22802734375, 64.951025390625006 ], [ 25.27109375, 64.984277343749994 ], [ 25.37265625, 65.009472656249997 ], [ 25.3623046875, 65.065136718749997 ], [ 25.340234375000023, 65.0986328125 ], [ 25.255859375, 65.143261718749997 ], [ 25.2978515625, 65.243212890625003 ], [ 25.307910156250017, 65.352734375 ], [ 25.347851562500011, 65.479248046875 ], [ 25.241796875, 65.546289062499994 ], [ 24.83935546875, 65.660351562499997 ], [ 24.764257812500006, 65.656396484374994 ], [ 24.674902343750006, 65.670703125 ], [ 24.58154296875, 65.757128906250003 ], [ 24.623242187500011, 65.831689453124994 ], [ 24.628027343750006, 65.859179687500003 ], [ 24.591601562500017, 65.858349609374997 ], [ 24.532617187500023, 65.822021484375 ], [ 24.404296875, 65.78046875 ], [ 24.2375, 65.812353515625006 ], [ 24.155468750000011, 65.805273437500006 ] ] ], [ [ [ 21.994238281250006, 60.336669921875 ], [ 21.921484375, 60.332275390625 ], [ 21.818652343750017, 60.3818359375 ], [ 21.8056640625, 60.401220703124999 ], [ 21.845996093750017, 60.412451171874999 ], [ 21.8193359375, 60.452294921874994 ], [ 21.827246093750006, 60.469921875 ], [ 21.906835937500006, 60.4384765625 ], [ 21.950292968750006, 60.401708984374999 ], [ 21.9078125, 60.393164062499999 ], [ 21.979785156250017, 60.355224609375 ], [ 21.994238281250006, 60.336669921875 ] ] ], [ [ [ 21.2177734375, 63.241308593749999 ], [ 21.228515625, 63.22265625 ], [ 21.287109375, 63.227783203125 ], [ 21.366015625000017, 63.261767578125003 ], [ 21.421972656250006, 63.245898437500003 ], [ 21.415625, 63.197363281249999 ], [ 21.377636718750011, 63.19921875 ], [ 21.3671875, 63.207226562499997 ], [ 21.318457031250006, 63.179492187500003 ], [ 21.309765625000011, 63.162695312499999 ], [ 21.25341796875, 63.152001953124994 ], [ 21.149316406250023, 63.199462890625 ], [ 21.083886718750023, 63.277539062499997 ], [ 21.236328125, 63.277734375 ], [ 21.221777343750006, 63.259130859374999 ], [ 21.2177734375, 63.241308593749999 ] ] ], [ [ [ 22.175097656250017, 60.370751953124994 ], [ 22.3017578125, 60.347558593749994 ], [ 22.35498046875, 60.355859375 ], [ 22.41552734375, 60.303369140624994 ], [ 22.312890625000023, 60.269970703124997 ], [ 22.305761718750006, 60.228564453125003 ], [ 22.346289062500006, 60.202832031249997 ], [ 22.360546875000011, 60.165576171875003 ], [ 22.25830078125, 60.165625 ], [ 22.209375, 60.196972656249997 ], [ 22.188085937500006, 60.236767578124997 ], [ 22.140527343750023, 60.264892578125 ], [ 22.0771484375, 60.286328125 ], [ 22.108203125000017, 60.314892578124997 ], [ 22.125878906250023, 60.355859375 ], [ 22.175097656250017, 60.370751953124994 ] ] ], [ [ [ 21.450878906250011, 60.529589843750003 ], [ 21.436914062500023, 60.483056640624994 ], [ 21.369042968750023, 60.488232421874997 ], [ 21.3, 60.479785156250003 ], [ 21.244335937500011, 60.525976562499999 ], [ 21.214550781250011, 60.603857421874999 ], [ 21.224707031250006, 60.62060546875 ], [ 21.26806640625, 60.63828125 ], [ 21.30126953125, 60.595556640624999 ], [ 21.450878906250011, 60.529589843750003 ] ] ], [ [ [ 21.833203125000011, 60.140527343749994 ], [ 21.733105468750011, 60.106152343749997 ], [ 21.695019531250011, 60.114355468749999 ], [ 21.704785156250011, 60.172314453124997 ], [ 21.764257812500006, 60.198828125 ], [ 21.864355468750006, 60.201806640624994 ], [ 21.833203125000011, 60.140527343749994 ] ] ], [ [ [ 21.628320312500023, 60.1078125 ], [ 21.540625, 60.097900390625 ], [ 21.486035156250011, 60.126806640624999 ], [ 21.506738281250023, 60.148339843749994 ], [ 21.56796875, 60.172314453124997 ], [ 21.634082031250017, 60.168994140625003 ], [ 21.648144531250011, 60.140869140625 ], [ 21.628320312500023, 60.1078125 ] ] ], [ [ [ 24.848242187500006, 64.991015625 ], [ 24.698925781250011, 64.9578125 ], [ 24.57861328125, 64.978564453125003 ], [ 24.576562500000023, 65.042871093749994 ], [ 24.651171875000017, 65.073974609375 ], [ 24.786035156250023, 65.08642578125 ], [ 24.970605468750023, 65.055322265624994 ], [ 24.99755859375, 65.038720703124994 ], [ 24.891796875000011, 65.026269531249994 ], [ 24.848242187500006, 64.991015625 ] ] ] ] } }
]
}
